{
  "type": "FeatureCollection",
  "features": [
    {
      "type": "Feature",
      "properties": {
        "norad_id": 43719,
        "name": "HYSIS",
        "group": "resource",
        "lat": -49.45533467718309,
        "lon": 60.23065798462436,
        "alt_km": 640.7046278687858,
        "timestamp": "2025-12-13T18:50:04.086134+00:00",
        "meta_object_name": "HYSIS",
        "meta_object_id": "2018-096A",
        "meta_epoch": "2025-12-13T07:41:31.676928",
        "meta_mean_motion": 14.78649347,
        "meta_eccentricity": 0.00012913,
        "meta_inclination": 98.0093,
        "meta_ra_of_asc_node": 50.2949,
        "meta_arg_of_pericenter": 56.0946,
        "meta_mean_anomaly": 304.0387,
        "meta_ephemeris_type": 0,
        "meta_classification_type": "U",
        "meta_norad_cat_id": 43719,
        "meta_element_set_no": 999,
        "meta_rev_at_epoch": 37995,
        "meta_bstar": 0.00035699059,
        "meta_mean_motion_dot": 2.564e-05,
        "meta_mean_motion_ddot": 0,
        "tle_line1": "1 43719U 18096A   25347.32050552  .00002564  00000+0  35699-3 0  9992",
        "tle_line2": "2 43719  98.0093  50.2949 0001291  56.0946 304.0387 14.78649347379958"
      },
      "geometry": {
        "type": "Point",
        "coordinates": [
          60.23065798462436,
          -49.45533467718309
        ]
      }
    },
    {
      "type": "Feature",
      "properties": {
        "norad_id": 43783,
        "name": "KAZSTSAT",
        "group": "resource",
        "lat": -80.34511170115137,
        "lon": 152.58918965839254,
        "alt_km": 574.3530034489077,
        "timestamp": "2025-12-13T18:50:04.086144+00:00",
        "meta_object_name": "KAZSTSAT",
        "meta_object_id": "2018-099AB",
        "meta_epoch": "2025-12-13T01:38:37.746816",
        "meta_mean_motion": 14.99354527,
        "meta_eccentricity": 0.00059071,
        "meta_inclination": 97.456,
        "meta_ra_of_asc_node": 22.2397,
        "meta_arg_of_pericenter": 328.8616,
        "meta_mean_anomaly": 31.2257,
        "meta_ephemeris_type": 0,
        "meta_classification_type": "U",
        "meta_norad_cat_id": 43783,
        "meta_element_set_no": 999,
        "meta_rev_at_epoch": 38341,
        "meta_bstar": 0.00017301376,
        "meta_mean_motion_dot": 2.06e-05,
        "meta_mean_motion_ddot": 0,
        "tle_line1": "1 43783U 18099AB  25347.06849244  .00002060  00000+0  17301-3 0  9992",
        "tle_line2": "2 43783  97.4560  22.2397 0005907 328.8616  31.2257 14.99354527383416"
      },
      "geometry": {
        "type": "Point",
        "coordinates": [
          152.58918965839254,
          -80.34511170115137
        ]
      }
    },
    {
      "type": "Feature",
      "properties": {
        "norad_id": 43831,
        "name": "SAUDISAT 5A",
        "group": "resource",
        "lat": 54.67112966452108,
        "lon": 37.48400657527547,
        "alt_km": 475.92098841081497,
        "timestamp": "2025-12-13T18:50:04.086155+00:00",
        "meta_object_name": "SAUDISAT 5A",
        "meta_object_id": "2018-102A",
        "meta_epoch": "2025-12-13T07:34:28.284960",
        "meta_mean_motion": 15.25670686,
        "meta_eccentricity": 0.00117368,
        "meta_inclination": 97.3355,
        "meta_ra_of_asc_node": 47.4955,
        "meta_arg_of_pericenter": 74.5889,
        "meta_mean_anomaly": 285.6645,
        "meta_ephemeris_type": 0,
        "meta_classification_type": "U",
        "meta_norad_cat_id": 43831,
        "meta_element_set_no": 999,
        "meta_rev_at_epoch": 38731,
        "meta_bstar": 0.00040914902,
        "meta_mean_motion_dot": 0.0001037,
        "meta_mean_motion_ddot": 0,
        "tle_line1": "1 43831U 18102A   25347.31560515  .00010370  00000+0  40915-3 0  9990",
        "tle_line2": "2 43831  97.3355  47.4955 0011736  74.5889 285.6645 15.25670686387310"
      },
      "geometry": {
        "type": "Point",
        "coordinates": [
          37.48400657527547,
          54.67112966452108
        ]
      }
    },
    {
      "type": "Feature",
      "properties": {
        "norad_id": 43833,
        "name": "SAUDISAT 5B",
        "group": "resource",
        "lat": 69.55486901486213,
        "lon": -109.0603276751048,
        "alt_km": 473.86631855831547,
        "timestamp": "2025-12-13T18:50:04.086166+00:00",
        "meta_object_name": "SAUDISAT 5B",
        "meta_object_id": "2018-102C",
        "meta_epoch": "2025-12-13T07:20:34.791936",
        "meta_mean_motion": 15.26022426,
        "meta_eccentricity": 0.00124613,
        "meta_inclination": 97.345,
        "meta_ra_of_asc_node": 50.2255,
        "meta_arg_of_pericenter": 76.8356,
        "meta_mean_anomaly": 283.4272,
        "meta_ephemeris_type": 0,
        "meta_classification_type": "U",
        "meta_norad_cat_id": 43833,
        "meta_element_set_no": 999,
        "meta_rev_at_epoch": 38742,
        "meta_bstar": 0.0003744878,
        "meta_mean_motion_dot": 9.588e-05,
        "meta_mean_motion_ddot": 0,
        "tle_line1": "1 43833U 18102C   25347.30595824  .00009588  00000+0  37449-3 0  9999",
        "tle_line2": "2 43833  97.3450  50.2255 0012461  76.8356 283.4272 15.26022426387421"
      },
      "geometry": {
        "type": "Point",
        "coordinates": [
          -109.0603276751048,
          69.55486901486213
        ]
      }
    },
    {
      "type": "Feature",
      "properties": {
        "norad_id": 44622,
        "name": "GAOFEN-10R",
        "group": "resource",
        "lat": -68.45322541086873,
        "lon": 94.35340320741734,
        "alt_km": 632.4727074414404,
        "timestamp": "2025-12-13T18:50:04.086176+00:00",
        "meta_object_name": "GAOFEN-10R",
        "meta_object_id": "2019-066A",
        "meta_epoch": "2025-12-13T07:59:36.871296",
        "meta_mean_motion": 14.82796879,
        "meta_eccentricity": 0.00078455,
        "meta_inclination": 98.0276,
        "meta_ra_of_asc_node": 294.8416,
        "meta_arg_of_pericenter": 40.3597,
        "meta_mean_anomaly": 319.8197,
        "meta_ephemeris_type": 0,
        "meta_classification_type": "U",
        "meta_norad_cat_id": 44622,
        "meta_element_set_no": 999,
        "meta_rev_at_epoch": 33483,
        "meta_bstar": 0.0003623882,
        "meta_mean_motion_dot": 2.878e-05,
        "meta_mean_motion_ddot": 0,
        "tle_line1": "1 44622U 19066A   25347.33306564  .00002878  00000+0  36239-3 0  9991",
        "tle_line2": "2 44622  98.0276 294.8416 0007845  40.3597 319.8197 14.82796879334838"
      },
      "geometry": {
        "type": "Point",
        "coordinates": [
          94.35340320741734,
          -68.45322541086873
        ]
      }
    },
    {
      "type": "Feature",
      "properties": {
        "norad_id": 44804,
        "name": "CARTOSAT-3",
        "group": "resource",
        "lat": -10.05601755853292,
        "lon": -133.97646343248155,
        "alt_km": 516.0215390969952,
        "timestamp": "2025-12-13T18:50:04.086187+00:00",
        "meta_object_name": "CARTOSAT-3",
        "meta_object_id": "2019-081A",
        "meta_epoch": "2025-12-13T06:56:10.337856",
        "meta_mean_motion": 15.19160323,
        "meta_eccentricity": 0.00141652,
        "meta_inclination": 97.4584,
        "meta_ra_of_asc_node": 46.8653,
        "meta_arg_of_pericenter": 81.473,
        "meta_mean_anomaly": 278.8109,
        "meta_ephemeris_type": 0,
        "meta_classification_type": "U",
        "meta_norad_cat_id": 44804,
        "meta_element_set_no": 999,
        "meta_rev_at_epoch": 33524,
        "meta_bstar": 0.00033339041,
        "meta_mean_motion_dot": 6.959e-05,
        "meta_mean_motion_ddot": 0,
        "tle_line1": "1 44804U 19081A   25347.28900854  .00006959  00000+0  33339-3 0  9998",
        "tle_line2": "2 44804  97.4584  46.8653 0014165  81.4730 278.8109 15.19160323335244"
      },
      "geometry": {
        "type": "Point",
        "coordinates": [
          -133.97646343248155,
          -10.05601755853292
        ]
      }
    },
    {
      "type": "Feature",
      "properties": {
        "norad_id": 44819,
        "name": "GAOFEN-12 01",
        "group": "resource",
        "lat": 30.681491871153053,
        "lon": 178.71099219381117,
        "alt_km": 625.4611112427228,
        "timestamp": "2025-12-13T18:50:04.086198+00:00",
        "meta_object_name": "GAOFEN-12 01",
        "meta_object_id": "2019-082A",
        "meta_epoch": "2025-12-13T06:48:38.958336",
        "meta_mean_motion": 14.80658221,
        "meta_eccentricity": 0.00013533,
        "meta_inclination": 97.8126,
        "meta_ra_of_asc_node": 353.5505,
        "meta_arg_of_pericenter": 229.9568,
        "meta_mean_anomaly": 130.1526,
        "meta_ephemeris_type": 0,
        "meta_classification_type": "U",
        "meta_norad_cat_id": 44819,
        "meta_element_set_no": 999,
        "meta_rev_at_epoch": 32658,
        "meta_bstar": 0.00010999339,
        "meta_mean_motion_dot": 7.94e-06,
        "meta_mean_motion_ddot": 0,
        "tle_line1": "1 44819U 19082A   25347.28378424  .00000794  00000+0  10999-3 0  9995",
        "tle_line2": "2 44819  97.8126 353.5505 0001353 229.9568 130.1526 14.80658221326589"
      },
      "geometry": {
        "type": "Point",
        "coordinates": [
          178.71099219381117,
          30.681491871153053
        ]
      }
    }
  ]
}